[{"OBJECT_NAME":"STARLINK-31198","OBJECT_ID":"2024-019Q","EPOCH":"2026-03-09T11:42:00.902880","MEAN_MOTION":15.27578083,"ECCENTRICITY":0.00011995,"INCLINATION":43.0012,"RA_OF_ASC_NODE":249.8639,"ARG_OF_PERICENTER":269.7146,"MEAN_ANOMALY":90.3568,"EPHEMERIS_TYPE":0,"CLASSIFICATION_TYPE":"U","NORAD_CAT_ID":58867,"ELEMENT_SET_NO":999,"REV_AT_EPOCH":11903,"BSTAR":1.2875094e-5,"MEAN_MOTION_DOT":9.2e-7,"MEAN_MOTION_DDOT":0},{"OBJECT_NAME":"GEOSCAN 5 (RS92S5)","OBJECT_ID":"2025-155R","EPOCH":"2026-03-09T22:01:07.273920","MEAN_MOTION":15.30265233,"ECCENTRICITY":0.00070849,"INCLINATION":97.4462,"RA_OF_ASC_NODE":37.7456,"ARG_OF_PERICENTER":154.5846,"MEAN_ANOMALY":205.5745,"EPHEMERIS_TYPE":0,"CLASSIFICATION_TYPE":"U","NORAD_CAT_ID":64891,"ELEMENT_SET_NO":999,"REV_AT_EPOCH":6562,"BSTAR":0.00068639307,"MEAN_MOTION_DOT":0.00020065,"MEAN_MOTION_DDOT":0}]
